NORAD_CAT_ID,OBJECT_NAME,OBJECT_TYPE,EPOCH,MEAN_MOTION,ECCENTRICITY,INCLINATION,RA_OF_ASC_NODE,ARG_OF_PERICENTER,MEAN_ANOMALY,BSTAR,MEAN_MOTION_DOT,MEAN_MOTION_DDOT,TLE_LINE0,TLE_LINE1,TLE_LINE2,SEMIMAJOR_AXIS,PERIOD,APOGEE,PERIGEE,DECAYED
55629.0,STARLINK-5497,PAYLOAD,2023-11-21 13:42:48,14.98331568,0.0002557,69.9986,160.2863,271.2648,88.8218,-1.3174e-05,-2.5e-06,0.0,0 STARLINK-5497,1 55629U 23021B   23325.57139350 -.00000250  00000-0 -13174-4 0  9992,2 55629  69.9986 160.2863 0002557 271.2648  88.8218 14.98331568 42606,6950.188,96.107,573.83,570.276,0.0
55629.0,STARLINK-5497,PAYLOAD,2023-11-21 20:07:20,14.9833264,0.0002539,69.9985,159.6127,271.1423,88.9445,2.8141e-05,2.43e-06,0.0,0 STARLINK-5497,1 55629U 23021B   23325.83843151  .00000243  00000-0  28141-4 0  9992,2 55629  69.9985 159.6127 0002539 271.1423  88.9445 14.98332640 42649,6950.185,96.107,573.814,570.285,0.0
55629.0,STARLINK-5497,PAYLOAD,2023-11-22 13:44:49,14.98333596,0.0002533,69.9984,157.7614,271.9477,88.1392,4.6112e-05,4.57e-06,0.0,0 STARLINK-5497,1 55629U 23021B   23326.57278938  .00000457  00000-0  46112-4 0  9994,2 55629  69.9984 157.7614 0002533 271.9477  88.1392 14.98333596 42755,6950.182,96.107,573.807,570.286,0.0
55629.0,STARLINK-5497,PAYLOAD,2023-11-22 18:33:13,14.98334414,0.0002528,69.9984,157.2564,272.1116,87.9754,5.3165e-05,5.42e-06,0.0,0 STARLINK-5497,1 55629U 23021B   23326.77306823  .00000542  00000-0  53165-4 0  9992,2 55629  69.9984 157.2564 0002528 272.1116  87.9754 14.98334414 42480,6950.179,96.107,573.801,570.287,0.0
55629.0,STARLINK-5497,PAYLOAD,2023-11-22 20:09:21,14.98335398,0.0002515,69.9984,157.0879,272.6202,87.4669,6.7717e-05,7.15e-06,0.0,0 STARLINK-5497,1 55629U 23021B   23326.83982731  .00000715  00000-0  67717-4 0  9997,2 55629  69.9984 157.0879 0002515 272.6202  87.4669 14.98335398 42790,6950.176,96.107,573.789,570.293,0.0
55629.0,STARLINK-5497,PAYLOAD,2023-11-23 13:46:50,14.98351954,0.0002029,69.9993,155.2375,259.4387,100.6543,-0.00036319,-4.426e-05,0.0,0 STARLINK-5497,1 55629U 23021B   23327.57418984 -.00004426  00000-0 -36319-3 0  9991,2 55629  69.9993 155.2375 0002029 259.4387 100.6543 14.98351954 42906,6950.125,96.106,573.4,570.58,0.0
55629.0,STARLINK-5497,PAYLOAD,2023-11-23 20:11:22,14.98325056,0.0002297,69.9988,154.5632,268.9708,91.1188,-4.2497e-05,-6e-06,0.0,0 STARLINK-5497,1 55629U 23021B   23327.84123672 -.00000600  00000-0 -42497-4 0  9993,2 55629  69.9988 154.5632 0002297 268.9708  91.1188 14.98325056 42641,6950.208,96.107,573.67,570.477,0.0
55629.0,STARLINK-5497,PAYLOAD,2023-11-23 21:47:30,14.98324718,0.0002342,69.9987,154.3946,271.7194,88.3697,-4.9559e-05,-6.84e-06,0.0,0 STARLINK-5497,1 55629U 23021B   23327.90799745 -.00000684  00000-0 -49559-4 0  9998,2 55629  69.9987 154.3946 0002342 271.7194  88.3697 14.98324718 42959,6950.209,96.107,573.702,570.446,0.0
55629.0,STARLINK-5497,PAYLOAD,2023-11-24 13:48:51,14.98327438,0.000218,70.0001,152.7128,260.5972,99.494,5.2819e-06,-3e-07,0.0,0 STARLINK-5497,1 55629U 23021B   23328.57559467 -.00000030  00000-0  52819-5 0  9995,2 55629  70.0001 152.7128 0002180 260.5972  99.4940 14.98327438 43051,6950.201,96.107,573.581,570.551,0.0
55629.0,STARLINK-5497,PAYLOAD,2023-11-24 21:49:31,14.98333389,0.0002329,69.9985,151.8703,262.1475,97.942,-4.3109e-05,-6.07e-06,0.0,0 STARLINK-5497,1 55629U 23021B   23328.90939237 -.00000607  00000-0 -43109-4 0  9991,2 55629  69.9985 151.8703 0002329 262.1475  97.9420 14.98333389 43103,6950.182,96.107,573.666,570.429,0.0
55629.0,STARLINK-5497,PAYLOAD,2023-11-25 13:50:51,14.98331209,0.0002593,69.9983,150.1865,269.474,90.6122,0.00011864,1.323e-05,0.0,0 STARLINK-5497,1 55629U 23021B   23329.57698963  .00001323  00000-0  11864-3 0  9999,2 55629  69.9983 150.1865 0002593 269.4740  90.6122 14.98331209 43209,6950.189,96.107,573.856,570.252,0.0
55629.0,STARLINK-5497,PAYLOAD,2023-11-25 21:51:31,14.98336124,0.0002575,69.9979,149.3428,274.8203,85.2662,0.0001651,1.878e-05,0.0,0 STARLINK-5497,1 55629U 23021B   23329.91078533  .00001878  00000-0  16510-3 0  9990,2 55629  69.9979 149.3428 0002575 274.8203  85.2662 14.98336124 43258,6950.174,96.107,573.829,570.249,0.0
55629.0,STARLINK-5497,PAYLOAD,2023-11-26 13:52:52,14.98333657,0.0002183,69.9985,147.6594,272.7491,87.3418,5.5934e-05,5.75e-06,0.0,0 STARLINK-5497,1 55629U 23021B   23330.57838870  .00000575  00000-0  55934-4 0  9999,2 55629  69.9985 147.6594 0002183 272.7491  87.3418 14.98333657 43352,6950.182,96.107,573.564,570.529,0.0
55629.0,STARLINK-5497,PAYLOAD,2023-11-26 18:41:17,14.98332406,0.0002266,69.9987,147.1549,271.8413,88.2487,3.4775e-05,3.22e-06,0.0,0 STARLINK-5497,1 55629U 23021B   23330.77866940  .00000322  00000-0  34775-4 0  9990,2 55629  69.9987 147.1549 0002266 271.8413  88.2487 14.98332406 43082,6950.185,96.107,573.625,570.476,0.0
55629.0,STARLINK-5497,PAYLOAD,2023-11-26 21:53:33,14.98332354,0.0002521,69.9987,146.8204,270.5732,89.5139,4.8653e-05,4.88e-06,0.0,0 STARLINK-5497,1 55629U 23021B   23330.91218857  .00000488  00000-0  48653-4 0  9997,2 55629  69.9987 146.8204 0002521 270.5732  89.5139 14.98332354 43406,6950.186,96.107,573.803,570.298,0.0
55629.0,STARLINK-5497,PAYLOAD,2023-11-27 13:54:53,14.98330059,0.0002121,69.9991,145.1368,262.135,97.9568,-9.6356e-06,-2.08e-06,0.0,0 STARLINK-5497,1 55629U 23021B   23331.57979066 -.00000208  00000-0 -96356-5 0  9992,2 55629  69.9991 145.1368 0002121 262.1350  97.9568 14.98330059 43503,6950.193,96.107,573.532,570.584,0.0
55629.0,STARLINK-5497,PAYLOAD,2023-11-27 18:43:18,14.98329165,0.0001956,69.9994,144.6318,252.5667,107.5278,-1.5772e-05,-2.81e-06,0.0,0 STARLINK-5497,1 55629U 23021B   23331.78007116 -.00000281  00000-0 -15772-4 0  9996,2 55629  69.9994 144.6318 0001956 252.5667 107.5278 14.98329165 43236,6950.195,96.107,573.42,570.701,0.0
55629.0,STARLINK-5497,PAYLOAD,2023-11-27 21:55:34,14.9832871,0.0002187,69.9994,144.2952,264.7625,95.3284,-2.4593e-05,-3.86e-06,0.0,0 STARLINK-5497,1 55629U 23021B   23331.91359184 -.00000386  00000-0 -24593-4 0  9993,2 55629  69.9994 144.2952 0002187 264.7625  95.3284 14.98328710 43553,6950.197,96.107,573.582,570.542,0.0
55629.0,STARLINK-5497,PAYLOAD,2023-11-28 13:56:54,14.98350059,0.0001894,69.9991,142.6125,250.5284,109.5671,-0.00028945,-3.546e-05,0.0,0 STARLINK-5497,1 55629U 23021B   23332.58118603 -.00003546  00000-0 -28945-3 0  9991,2 55629  69.9991 142.6125 0001894 250.5284 109.5671 14.98350059 43652,6950.131,96.106,573.312,570.68,0.0
55629.0,STARLINK-5497,PAYLOAD,2023-11-28 20:21:26,14.98331105,0.0002091,69.9994,141.9397,254.2489,105.8439,3.7352e-05,3.53e-06,0.0,0 STARLINK-5497,1 55629U 23021B   23332.84822820  .00000353  00000-0  37352-4 0  9997,2 55629  69.9994 141.9397 0002091 254.2489 105.8439 14.98331105 43399,6950.189,96.107,573.508,570.601,0.0
55629.0,STARLINK-5497,PAYLOAD,2023-11-28 21:57:34,14.98331391,0.0002084,69.9994,141.7714,253.1625,106.9305,4.07e-05,3.93e-06,0.0,0 STARLINK-5497,1 55629U 23021B   23332.91498776  .00000393  00000-0  40700-4 0  9999,2 55629  69.9994 141.7714 0002084 253.1625 106.9305 14.98331391 43708,6950.189,96.107,573.502,570.605,0.0
55629.0,STARLINK-5497,PAYLOAD,2023-11-29 12:22:47,14.98353585,0.0002333,69.9996,140.2569,275.7797,84.3096,-0.00032,-3.911e-05,0.0,0 STARLINK-5497,1 55629U 23021B   23333.51582495 -.00003911  00000-0 -32000-3 0  9992,2 55629  69.9996 140.2569 0002333 275.7797  84.3096 14.98353585 43490,6950.12,96.105,573.606,570.363,0.0
55629.0,STARLINK-5497,PAYLOAD,2023-11-29 13:58:55,14.98328503,0.0002412,69.9996,140.0886,278.0229,82.0657,0.0001087,1.204e-05,0.0,0 STARLINK-5497,1 55629U 23021B   23333.58258801  .00001204  00000-0  10870-3 0  9992,2 55629  69.9996 140.0886 0002412 278.0229  82.0657 14.98328503 43809,6950.198,96.107,573.739,570.386,0.0
55629.0,STARLINK-5497,PAYLOAD,2023-11-29 18:47:19,14.98329996,0.0002414,69.9993,139.583,266.671,93.4173,9.0049e-05,9.82e-06,0.0,0 STARLINK-5497,1 55629U 23021B   23333.78286708  .00000982  00000-0  90049-4 0  9990,2 55629  69.9993 139.5830 0002414 266.6710  93.4173 14.98329996 43534,6950.193,96.107,573.736,570.38,0.0
55629.0,STARLINK-5497,PAYLOAD,2023-11-30 18:49:20,14.9833089,0.000251,69.9994,137.0582,268.7924,91.2948,2.0919e-05,1.57e-06,0.0,0 STARLINK-5497,1 55629U 23021B   23334.78426775  .00000157  00000-0  20919-4 0  9994,2 55629  69.9994 137.0582 0002510 268.7924  91.2948 14.98330890 43686,6950.19,96.107,573.8,570.311,0.0
55629.0,STARLINK-5497,PAYLOAD,2023-11-30 20:25:29,14.98325455,0.0002513,69.9993,136.889,282.1392,77.9485,-5.263e-05,-7.21e-06,0.0,0 STARLINK-5497,1 55629U 23021B   23334.85103350 -.00000721  00000-0 -52630-4 0  9997,2 55629  69.9993 136.8890 0002513 282.1392  77.9485 14.98325455 43695,6950.207,96.107,573.819,570.325,0.0
55629.0,STARLINK-5497,PAYLOAD,2023-12-01 12:26:51,14.98314922,0.0002435,69.9994,135.2066,266.9193,93.1687,-0.00012615,-1.597e-05,0.0,0 STARLINK-5497,1 55629U 23021B   23335.51864593 -.00001597  00000-0 -12615-3 0  9994,2 55629  69.9994 135.2066 0002435 266.9193  93.1687 14.98314922 43798,6950.24,96.108,573.797,570.412,0.0
55629.0,STARLINK-5497,PAYLOAD,2023-12-01 20:27:31,14.98318327,0.0002367,69.9994,134.3646,266.1258,93.963,-8.2179e-05,-1.073e-05,0.0,0 STARLINK-5497,1 55629U 23021B   23335.85244550 -.00001073  00000-0 -82179-4 0  9998,2 55629  69.9994 134.3646 0002367 266.1258  93.9630 14.98318327 44149,6950.229,96.108,573.739,570.449,0.0
55629.0,STARLINK-5497,PAYLOAD,2023-12-02 12:28:51,14.98330434,0.0002626,69.9987,132.6803,271.0975,88.9883,8.5585e-05,9.28e-06,0.0,0 STARLINK-5497,1 55629U 23021B   23336.52003666  .00000928  00000-0  85585-4 0  9994,2 55629  69.9987 132.6803 0002626 271.0975  88.9883 14.98330434 43940,6950.192,96.107,573.882,570.231,0.0
55629.0,STARLINK-5497,PAYLOAD,2023-12-02 14:04:59,14.983304,0.0002489,69.9987,132.5117,268.0113,92.0761,5.6178e-05,5.77e-06,0.0,0 STARLINK-5497,1 55629U 23021B   23336.58679730  .00000577  00000-0  56178-4 0  9997,2 55629  69.9987 132.5117 0002489 268.0113  92.0761 14.98330400 44253,6950.192,96.107,573.787,570.327,0.0
